[{"OBJECT_NAME":"STARLINK-4297","OBJECT_ID":"2022-101S","EPOCH":"2026-03-09T23:24:44.750016","MEAN_MOTION":15.08838023,"ECCENTRICITY":0.00014656,"INCLINATION":53.2178,"RA_OF_ASC_NODE":62.9007,"ARG_OF_PERICENTER":84.6766,"MEAN_ANOMALY":275.4393,"EPHEMERIS_TYPE":0,"CLASSIFICATION_TYPE":"U","NORAD_CAT_ID":53543,"ELEMENT_SET_NO":999,"REV_AT_EPOCH":19703,"BSTAR":4.5633786e-5,"MEAN_MOTION_DOT":4.38e-6,"MEAN_MOTION_DDOT":0},{"OBJECT_NAME":"COSMOS 2058","OBJECT_ID":"1990-010A","EPOCH":"2026-03-09T23:30:01.891584","MEAN_MOTION":15.11324867,"ECCENTRICITY":0.00093159,"INCLINATION":82.4669,"RA_OF_ASC_NODE":47.1427,"ARG_OF_PERICENTER":343.3032,"MEAN_ANOMALY":16.789,"EPHEMERIS_TYPE":0,"CLASSIFICATION_TYPE":"U","NORAD_CAT_ID":20465,"ELEMENT_SET_NO":999,"REV_AT_EPOCH":94228,"BSTAR":0.00029943939,"MEAN_MOTION_DOT":5.077e-5,"MEAN_MOTION_DDOT":0}]
